BEESAT-1                
1 35933U 09051C   24120.60464092  .00001562  00000+0  34579-3 0  9992
2 35933  98.4698   3.9092 0006779 115.2189 244.9713 14.58626777775549
